#dP2024  8 11  0  0  0.00000000      97 __u+U IGS20 FIT  IAC
## 2327      0.00000000   900.00000000 60533 0.0000000000000
+  119   C06C07C08C09C10C11C12C13C14C16C19C20C21C22C23C24C25
+        C26C27C28C29C30C32C33C34C35C36C37C38C39C40C41C42C43
+        C44C45E02E03E04E05E06E07E08E09E10E11E12E13E14E15E18
+        E19E21E24E25E26E27E29E30E31E33E34E36G02G03G04G05G06
+        G07G08G09G10G11G12G13G14G15G16G17G18G19G20G21G22G23
+        G24G25G26G27G28G29G30G31G32J02J03J04R01R02R03R04R05
+        R07R08R09R11R12R14R15R16R17R18R19R20R21R22R24R25R26
++         7  7  7  7  7  7  7  7  7  7  6  6  5  6  5  5  6
++         6  5  6  5  5  5  5  6  6  6  5  6  6  6  5  6  6
++         6  6  4  4  4  4  4  4  4  4  4  4  4  4  4  4  4
++         4  5  4  4  4  5  4  4  4  4  4  4  4  3  4  4  3
++         4  4  4  4  4  4  5  4  4  4  3  4  3  4  4  4  4
++         4  3  4  4  4  3  3  4  3 11 11 11  8  7  6  6  7
++         6  7  6  7  7  7  6  6  6  9  7  8  6  6  6  7  8
%c M  cc GPS ccc cccc cccc cccc cccc ccccc ccccc ccccc ccccc
%c cc cc ccc ccc cccc cccc cccc cccc ccccc ccccc ccccc ccccc
%f  1.2500000  1.025000000  0.00000000000  0.000000000000000
%f  0.0000000  0.000000000  0.00000000000  0.000000000000000
%i    0    0    0    0      0      0      0      0         0
%i    0    0    0    0      0      0      0      0         0
/* INFORMATION & ANALYSIS CENTER (IAC)            FINAL DATA
/* S/V CLOCKS ARE ALIGNED TO GNSS TIME                      
/* G:C1WC2W R:C1PC2P E:C1XC5X C:C2IC6I J:C1CC2S             
/* PCV:IGS20_2317 OL/AL:FES2004  NONE     YN ORB:CoN CLK:CoN
*  2024 08 11  6 45  0.00000000
PC06 -12960.164394  40288.501435    183.275366    671.353677
PC07  -4342.081733  29640.415750 -29470.100362   -471.145948
PC08 -15863.363331  22243.976989  31995.603306   -412.397444
PC09  -7371.468786  40502.976191 -10019.334840   -163.422820
PC10   2965.413690  32021.161960 -26626.564759   -120.672141
PC11   5578.231571 -25111.695168  10910.444298    706.990846
PC12  14355.834050  -8483.654693  22415.654912   -265.871841
PC13  -7914.690170  23579.109915  34137.117196    437.810836
PC14   6129.405505 -14371.541275 -23120.602543    916.922876
PC16 -14294.983612  39811.279447   2392.979269   -720.906853
PC19   4299.121066  17560.278816  21263.288422   -924.780653
PC20 -14161.057595   9828.471447  21952.613598   -788.637833
PC21  25860.545010   4706.291967  -9326.589862   -944.666144
PC22  21494.111002  15725.531166   8273.138412     88.747924
PC23 -11389.710672 -11881.715093  22546.478060   -812.697616
PC24  21751.133968 -17421.108660   1701.117616    859.285849
PC25   7006.337325 -20919.046280  17094.131823    475.487577
PC26  23284.892701  -4429.047991 -14771.633269   -332.642244
PC27 -16193.111488  -1914.584105 -22666.206955    353.243965
PC28 -12947.989485 -19151.625315 -15631.827442    272.762488
PC29   1516.203498  27665.088342  -3309.479846    320.266857
PC30 -10960.856447  17479.105907 -18805.548549   -161.672845
PC32 -25950.815767  -4594.241326   9208.385582   -698.902191
PC33  -4335.238670 -17543.967063 -21276.422339   -966.030079
PC34  10096.082285 -18968.687240  17784.621286    496.629818
PC35  13525.542189  19088.322232  15220.365349    290.220158
PC36  -7122.217166  20678.737790 -17298.902932    157.919958
PC37 -23348.899136   3889.215082  14775.305062   -910.141876
PC38 -24337.270157  23748.891668  24859.097096    172.590543
PC39 -15780.382006  38108.179314   9409.196851     -9.497746
PC40  -7708.831307  24603.878657 -33264.126370    -85.007963
PC41 -21003.808635 -15969.753429  -9071.101850   -927.134529
PC42  15747.368419  -8742.933440 -21272.061535   -461.904152
PC43   -838.912597 -27566.682427   4200.455767     81.930202
PC44  16401.024300   1475.482694  22515.375649    559.810842
PC45  10886.030314  12123.018893 -22652.927804   -115.598350
PE02 -24344.775627  -9250.882117  14060.426726    150.423160
PE03 -20184.273754 -19013.978776  10371.859146   -132.891907
PE04  18582.872546   -416.263940 -23031.173623     -5.394825
PE05  -9855.616552 -26727.732953  -8054.751786   4774.077168
PE06  13443.575712 -10696.789637 -24119.223689    -14.168569
PE07  -6588.861135  18610.518545  22051.392087   -135.952330
PE08 -18825.905893   -618.796601  22833.717542   -317.304902
PE09   6530.874537 -18502.000457 -22170.290397   -548.376655
PE10  19020.659617 -19519.563923  11555.573275   -647.565673
PE11  14975.520003 -25488.614411   1445.130015   2081.599931
PE12  19941.501495 -11252.434968  18746.309883  -1161.907218
PE13 -15259.480339  25280.895187  -2042.567912    -23.732978
PE14 -22185.678458 -22039.282494  -8726.744671    160.331950
PE15 -19841.264059  10681.664834 -19191.536048   -120.217954
PE18  16455.934768  14772.502002   7835.096978    419.399476
PE19  19475.512694  20526.122474  -8682.650489    437.964574
PE21   6009.283551  16409.948936 -23885.232014   -610.434403
PE24  16770.133932 -14157.652725  19861.006242   -924.101615
PE25  -5509.220858 -16481.478374  23972.282041      7.872963
PE26  -1320.042379  24657.737616  16316.045077    538.344308
PE27 -16528.890986  14234.554040 -19998.826380   -423.367241
PE29  10063.255287  26781.070925   7603.504110    -22.012517
PE30 -29050.774559   3613.527981  -4354.625511   -599.715847
PE31  29037.822037  -3711.310515   4394.702547    -32.173730
PE33  12425.085153  10413.574348  24763.311785     14.517773
PE34 -12725.987132  -9949.983936 -24812.208008   -127.795411
PE36   1859.877155 -24851.901325 -15973.854298   -267.508204
PG02  14424.170992 -20301.141786   9231.492581   -381.292549
PG03  16205.569834 -12530.448251 -17007.776917    495.386905
PG04   6772.337600 -15575.274866 -20370.114218    421.867599
PG05 -25946.085348   5141.810115   2638.593200   -182.815670
PG06  -9355.474003 -12654.133875 -21313.985968    105.773331
PG07   3866.452254 -24352.787180   9757.692192    -53.702567
PG08  15111.044551  -4974.974127  21209.623904    311.065125
PG09  -3985.004445 -22225.624518 -14028.299893    309.453988
PG10  16232.651702  10930.470059  18321.855921    -90.661759
PG11 -16935.798079   1899.168632 -20329.757855   -719.696224
PG12 -19369.742735  10650.781288 -14968.289799   -529.450796
PG13 -17247.468384  -4895.844359  19455.465275    670.104639
PG14 -12241.422563 -13422.016702  19491.690750    469.753813
PG15 -14238.660461   7174.380372  20751.462690    191.280125
PG16  26789.902096    756.173542   -808.261089   -211.781433
PG17 -13274.371585 -22898.330538    664.231962    657.497320
PG18  -4410.127553  24090.159758  10017.976637   -645.147067
PG19 -17020.871015 -18860.981144  -8608.086837    522.981280
PG20 -25195.380607    741.073141  -8056.611658    371.802698
PG21  16060.325870 -15507.904137  13950.065132    103.704463
PG22 -19008.213579 -10862.605759  15242.757130    -49.962448
PG23   2752.842081  14582.105195  22058.181881    294.650893
PG24 -14678.949511  19352.981957   9810.420391   -485.958019
PG25  -7778.805403  15454.635831 -20423.600860    499.213957
PG26  22735.110142   5995.182605 -12860.266384    102.804949
PG27  19226.932610   6818.880185  16939.396053    -32.849161
PG28   8816.183768  14919.764710 -20137.758005   -367.941390
PG29   -894.511741  20820.424707 -16435.066621   -584.723698
PG30  -4723.210965 -19662.242747  17235.399103   -342.038375
PG31  15632.887579   2887.230593 -21544.293753   -225.975203
PG32  15799.185919  21462.933799   -821.036977   -606.609425
PJ02 -32378.367256  14800.186360 -17912.483193     -0.751736
PJ03 -23793.956398  31775.550773  -9432.587402     -1.769760
PJ04 -24624.648999  27466.282306  26117.654294     22.576378
PR01 -22230.766689 -11589.283684   4737.957929     94.149356
PR02 -16944.975262  -1031.212427  19051.030360    -24.077682
PR03  -2460.485320  11250.512528  22808.279291    105.413594
PR04  12842.157140  16932.465612  14144.940531    249.400648
PR05  21357.250984  13809.950579  -2116.528391    135.913153
PR07   1927.347238 -11519.633693 -22634.668384     88.559671
PR08 -13162.203282 -16856.194384 -13819.578987     -6.323578
PR09  23045.151577 -10411.840326  -2957.631343    202.751496
PR11    470.099681 -12137.570909  22442.174283     15.241644
PR12 -17599.507993  -1261.170303  18447.039845     43.498312
PR14 -15417.458786  15090.959001 -13610.281997     26.805190
PR15   1208.953795  11564.771244 -22679.099590     76.965777
PR16  17399.803765   1199.780141 -18581.306414     28.151399
PR17  -5708.765618  23416.383653  -8268.509038    112.476898
PR18   1478.910501  24119.589822   8242.898378    156.448755
PR19   7094.294540  14453.231369  19777.521965   -287.142658
PR20  10771.099322  -8251.246366  21599.194292   -117.471909
PR21   6102.450359 -23171.505506   8798.272794   -125.014167
PR22  -1598.935299 -23709.819546  -9241.421773     71.762764
PR24 -10770.569648   9267.631682 -21162.390885    -67.361944
PR25   6584.950930 -23361.051310   7896.824670   -100.070783
PR26 -12127.143742 -16671.708270 -15019.569510      9.031910
EOF
